NORAD_CAT_ID,OBJECT_NAME,OBJECT_TYPE,EPOCH,MEAN_MOTION,ECCENTRICITY,INCLINATION,RA_OF_ASC_NODE,ARG_OF_PERICENTER,MEAN_ANOMALY,BSTAR,MEAN_MOTION_DOT,MEAN_MOTION_DDOT,TLE_LINE0,TLE_LINE1,TLE_LINE2,SEMIMAJOR_AXIS,PERIOD,APOGEE,PERIGEE,DECAYED
52501.0,STARLINK-3907,PAYLOAD,2022-12-10 10:39:51,15.087984099999998,0.000256,53.2182,329.9119,6.1796,353.9227,-0.00095461,-0.00015432,0.0,0 STARLINK-3907,1 52501U 22049BC  22344.44434647 -.00015432  00000-0 -95461-3 0  9996,2 52501  53.2182 329.9119 0002560   6.1796 353.9227 15.08798410 33620,6918.0080000000025,95.44,541.644,538.102,0.0
52501.0,STARLINK-3907,PAYLOAD,2022-12-11 04:09:05,15.08750189,0.0002192,53.2188,326.6393,312.0703,48.0103,0.00098162,0.00015331,0.0,0 STARLINK-3907,1 52501U 22049BC  22345.17298061  .00015331  00000-0  98162-3 0  9992,2 52501  53.2188 326.6393 0002192 312.0703  48.0103 15.08750189 33730,6918.155,95.443,541.536,538.503,0.0
52501.0,STARLINK-3907,PAYLOAD,2022-12-11 13:41:21,15.08839576,0.0002776,53.2188,324.8559,23.39,336.7218,-1.9898e-05,-6.05e-06,0.0,0 STARLINK-3907,1 52501U 22049BC  22345.57038787 -.00000605  00000-0 -19898-4 0  9993,2 52501  53.2188 324.8559 0002776  23.3900 336.7218 15.08839576 33791,6917.882,95.438,541.6669999999998,537.826,0.0
52501.0,STARLINK-3907,PAYLOAD,2022-12-11 21:38:17,15.08818774,0.0001412,53.2198,323.3622,344.3634,15.7314,0.00034016,5.127e-05,0.0,0 STARLINK-3907,1 52501U 22049BC  22345.90159137  .00005127  00000-0  34016-3 0  9993,2 52501  53.2198 323.3622 0001412 344.3634  15.7314 15.08818774 33689,6917.945,95.439,540.7869999999998,538.8330000000002,0.0
52501.0,STARLINK-3907,PAYLOAD,2022-12-12 03:59:49,15.08824816,0.0001855,53.2187,322.1716,6.3113,353.7902,0.00029137,4.35e-05,0.0,0 STARLINK-3907,1 52501U 22049BC  22346.16655021  .00004350  00000-0  29137-3 0  9990,2 52501  53.2187 322.1716 0001855   6.3113 353.7902 15.08824816 33880,6917.927,95.439,541.075,538.509,0.0
52501.0,STARLINK-3907,PAYLOAD,2022-12-12 08:45:59,15.08840535,0.0002432,53.2188,321.2822,29.7502,330.3628,0.00012579,1.714e-05,0.0,0 STARLINK-3907,1 52501U 22049BC  22346.36526822  .00001714  00000-0  12579-3 0  9991,2 52501  53.2188 321.2822 0002432  29.7502 330.3628 15.08840535 33918,6917.879,95.438,541.4259999999998,538.061,0.0
52501.0,STARLINK-3907,PAYLOAD,2022-12-13 05:26:00,15.08836686,0.0002733,53.2187,317.416,25.1672,334.9453,0.00014681,2.049e-05,0.0,0 STARLINK-3907,1 52501U 22049BC  22347.22639261  .00002049  00000-0  14681-3 0  9997,2 52501  53.2187 317.4160 0002733  25.1672 334.9453 15.08836686 34044,6917.891,95.438,541.646,537.865,0.0
52501.0,STARLINK-3907,PAYLOAD,2022-12-13 07:01:23,15.08834701,0.0002597,53.2179,317.1194,24.9983,335.1135,6.2784e-05,7.11e-06,0.0,0 STARLINK-3907,1 52501U 22049BC  22347.29263351  .00000711  00000-0  62784-4 0  9999,2 52501  53.2179 317.1194 0002597  24.9983 335.1135 15.08834701 33897,6917.897,95.438,541.558,537.965,0.0
52501.0,STARLINK-3907,PAYLOAD,2022-12-13 14:58:19,15.08838913,0.0002725,53.2184,315.6321,25.5198,334.5928,7.8654e-05,9.64e-06,0.0,0 STARLINK-3907,1 52501U 22049BC  22347.62383174  .00000964  00000-0  78654-4 0  9995,2 52501  53.2184 315.6321 0002725  25.5198 334.5928 15.08838913 33944,6917.884,95.438,541.634,537.864,0.0
52501.0,STARLINK-3907,PAYLOAD,2022-12-14 06:52:10,15.08841027,0.0002801,53.2183,312.6583,23.1548,336.9569,8.925e-05,1.132e-05,0.0,0 STARLINK-3907,1 52501U 22049BC  22348.28623110  .00001132  00000-0  89250-4 0  9997,2 52501  53.2183 312.6583 0002801  23.1548 336.9569 15.08841027 34205,6917.877,95.437,541.68,537.805,0.0
52501.0,STARLINK-3907,PAYLOAD,2022-12-14 14:49:05,15.08848508,0.0002563,53.2189,311.1715,27.7584,332.3544,9.5151e-05,1.227e-05,0.0,0 STARLINK-3907,1 52501U 22049BC  22348.61742724  .00001227  00000-0  95151-4 0  9999,2 52501  53.2189 311.1715 0002563  27.7584 332.3544 15.08848508 34098,6917.854,95.437,541.492,537.946,0.0
52501.0,STARLINK-3907,PAYLOAD,2022-12-15 06:42:58,15.08828106,0.0002689,53.2187,308.1983,25.5785,334.5339,7.5691e-05,9.16e-06,0.0,0 STARLINK-3907,1 52501U 22049BC  22349.27984079  .00000916  00000-0  75691-4 0  9994,2 52501  53.2187 308.1983 0002689  25.5785 334.5339 15.08828106 34354,6917.917,95.438,541.6419999999998,537.922,0.0
52501.0,STARLINK-3907,PAYLOAD,2022-12-15 09:53:44,15.0883562,0.0002694,53.2186,307.6037,24.8562,335.2559,6.6797e-05,7.75e-06,0.0,0 STARLINK-3907,1 52501U 22049BC  22349.41231653  .00000775  00000-0  66797-4 0  9993,2 52501  53.2186 307.6037 0002694  24.8562 335.2559 15.08835620 34214,6917.894,95.438,541.622,537.895,0.0
52501.0,STARLINK-3907,PAYLOAD,2022-12-15 14:39:52,15.08843068,0.000266,53.2187,306.7121,25.2732,334.839,0.00014072,1.952e-05,0.0,0 STARLINK-3907,1 52501U 22049BC  22349.61102989  .00001952  00000-0  14072-3 0  9990,2 52501  53.2187 306.7121 0002660  25.2732 334.8390 15.08843068 34400,6917.871,95.437,541.576,537.896,0.0
52501.0,STARLINK-3907,PAYLOAD,2022-12-15 21:01:25,15.08845528,0.0002638,53.2186,305.5226,25.8361,334.2762,0.00012974,1.777e-05,0.0,0 STARLINK-3907,1 52501U 22049BC  22349.87598756  .00001777  00000-0  12974-3 0  9993,2 52501  53.2186 305.5226 0002638  25.8361 334.2762 15.08845528 34287,6917.863,95.437,541.553,537.904,0.0
52501.0,STARLINK-3907,PAYLOAD,2022-12-16 08:09:07,15.08854315,0.000266,53.2173,303.4412,26.6431,333.4698,0.00033217,5.004e-05,0.0,0 STARLINK-3907,1 52501U 22049BC  22350.33966622  .00005004  00000-0  33217-3 0  9997,2 52501  53.2173 303.4412 0002660  26.6431 333.4698 15.08854315 34350,6917.837,95.437,541.5419999999998,537.861,0.0
52501.0,STARLINK-3907,PAYLOAD,2022-12-16 20:52:12,15.08841788,0.0002716,53.2173,301.0627,29.0898,331.0245,9.1417e-05,1.167e-05,0.0,0 STARLINK-3907,1 52501U 22049BC  22350.86958974  .00001167  00000-0  91417-4 0  9999,2 52501  53.2173 301.0627 0002716  29.0898 331.0245 15.08841788 34596,6917.875,95.437,541.619,537.861,0.0
52501.0,STARLINK-3907,PAYLOAD,2022-12-17 06:24:31,15.08837752,0.0002702,53.2176,299.2785,28.534,331.58,0.00013477,1.857e-05,0.0,0 STARLINK-3907,1 52501U 22049BC  22351.26703195  .00001857  00000-0  13477-3 0  9992,2 52501  53.2176 299.2785 0002702  28.5340 331.5800 15.08837752 34490,6917.887,95.438,541.621,537.883,0.0
52501.0,STARLINK-3907,PAYLOAD,2022-12-17 14:21:27,15.08830735,0.0002519,53.2182,297.7913,28.9065,331.2067,8.2643e-06,-1.57e-06,0.0,0 STARLINK-3907,1 52501U 22049BC  22351.59823945 -.00000157  00000-0  82643-5 0  9990,2 52501  53.2182 297.7913 0002519  28.9065 331.2067 15.08830735 34707,6917.909000000002,95.438,541.516,538.031,0.0
52501.0,STARLINK-3907,PAYLOAD,2022-12-18 03:04:32,15.08839329,0.0002791,53.2194,295.414,21.0877,339.0229,-2.1311e-05,-6.28e-06,0.0,0 STARLINK-3907,1 52501U 22049BC  22352.12815427 -.00000628  00000-0 -21311-4 0  9994,2 52501  53.2194 295.4140 0002791  21.0877 339.0229 15.08839329 34786,6917.882,95.438,541.678,537.817,0.0
52501.0,STARLINK-3907,PAYLOAD,2022-12-18 06:15:18,15.08838737,0.0002755,53.2186,294.8183,23.9743,336.1377,8.4111e-06,-1.55e-06,0.0,0 STARLINK-3907,1 52501U 22049BC  22352.26063439 -.00000155  00000-0  84111-5 0  9999,2 52501  53.2186 294.8183 0002755  23.9743 336.1377 15.08838737 34649,6917.884,95.438,541.655,537.8430000000002,0.0
52501.0,STARLINK-3907,PAYLOAD,2022-12-18 20:33:47,15.08829554,0.0002853999999999,53.216,292.1426,27.5183,332.596,-5.9367e-05,-1.233e-05,0.0,0 STARLINK-3907,1 52501U 22049BC  22352.85680459 -.00001233  00000-0 -59367-4 0  9994,2 52501  53.2160 292.1426 0002854  27.5183 332.5960 15.08829554 34735,6917.9119999999975,95.438,541.752,537.803,0.0
52501.0,STARLINK-3907,PAYLOAD,2022-12-19 06:06:07,15.08820266,0.0002675,53.2187,290.3575,23.2947,336.8166,-7.437e-05,-1.471e-05,0.0,0 STARLINK-3907,1 52501U 22049BC  22353.25425534 -.00001471  00000-0 -74370-4 0  9995,2 52501  53.2187 290.3575 0002675  23.2947 336.8166 15.08820266 34951,6917.941,95.439,541.656,537.955,0.0
52501.0,STARLINK-3907,PAYLOAD,2022-12-20 02:46:06,15.08845378,0.0002759,53.2185,286.4949,25.4518,334.661,0.00015148,2.124e-05,0.0,0 STARLINK-3907,1 52501U 22049BC  22354.11535867  .00002124  00000-0  15148-3 0  9993,2 52501  53.2185 286.4949 0002759  25.4518 334.6610 15.08845378 35087,6917.864000000001,95.437,541.638,537.82,0.0
52501.0,STARLINK-3907,PAYLOAD,2022-12-20 12:18:25,15.08854568,0.0002771,53.2182,284.7084,26.5369,333.5765,0.00027692,4.123e-05,0.0,0 STARLINK-3907,1 52501U 22049BC  22354.51278988  .00004123  00000-0  27692-3 0  9993,2 52501  53.2182 284.7084 0002771  26.5369 333.5765 15.08854568 35142,6917.8359999999975,95.437,541.618,537.784,0.0
52501.0,STARLINK-3907,PAYLOAD,2022-12-20 21:50:45,15.08833053,0.0002933,53.2167,282.9215,36.0458,324.0732,0.00018887,2.718e-05,0.0,0 STARLINK-3907,1 52501U 22049BC  22354.91024683  .00002718  00000-0  18887-3 0  9992,2 52501  53.2167 282.9215 0002933  36.0458 324.0732 15.08833053 35208,6917.901999999999,95.438,541.7959999999998,537.738,0.0
52501.0,STARLINK-3907,PAYLOAD,2022-12-21 12:09:15,15.08816346,0.0002816,53.2184,280.2472,27.0872,333.0266,1.3471e-05,-7.4e-07,0.0,0 STARLINK-3907,1 52501U 22049BC  22355.50642475 -.00000074  00000-0  13471-4 0  9992,2 52501  53.2184 280.2472 0002816  27.0872 333.0266 15.08816346 35290,6917.953,95.439,541.766,537.87,0.0
52501.0,STARLINK-3907,PAYLOAD,2022-12-22 04:03:04,15.08852433,0.0002974,53.2183,277.2728,28.1304,331.9849,-2.4932e-05,-6.86e-06,0.0,0 STARLINK-3907,1 52501U 22049BC  22356.16880521 -.00000686  00000-0 -24932-4 0  9995,2 52501  53.2183 277.2728 0002974  28.1304 331.9849 15.08852433 35398,6917.842,95.437,541.765,537.65,0.0
52501.0,STARLINK-3907,PAYLOAD,2022-12-22 11:59:59,15.08859309,0.0002847,53.2182,275.7867,30.4515,329.6642,1.7709e-05,-7e-08,0.0,0 STARLINK-3907,1 52501U 22049BC  22356.49999654 -.00000007  00000-0  17709-4 0  9999,2 52501  53.2182 275.7867 0002847  30.4515 329.6642 15.08859309 35443,6917.821,95.436,541.656,537.717,0.0
